IONOSFERA-M 2           
1 61736U 24199B   26157.18693527  .00000055  00000+0  43975-4 0  9991
2 61736  98.7185  30.3853 0001471  48.6810 311.4495 14.22755497129268
PRSC-EO1                
1 62725U 25012A   26156.78537380  .00004564  00000+0  23021-3 0  9992
2 62725  97.4223 229.4677 0004308 306.3423  53.7413 15.17617532 76468
BIOMASS                 
1 63772U 25090A   26156.37431356  .00000809  00000+0  15115-3 0  9995
2 63772  98.0746 343.8629 0001276  90.9912 269.1439 14.67539402 58954
GOSAT-GW (IBUKI GW)     
1 64694U 25141A   26157.28110975  .00000812  00000+0  15163-3 0  9995
2 64694  98.0572  94.7756 0001413  83.5419 276.5947 14.67552347 50244
IONOSFERA-M 3           
1 64876U 25155A   26157.26517016  .00000072  00000+0  52456-4 0  9992
2 64876  98.6026 119.4455 0000345 183.9444 176.1731 14.21484597 44850
IONOSFERA-M 4           
1 64877U 25155B   26157.22964024  .00000073  00000+0  52885-4 0  9991
2 64877  98.6019 119.3284 0000678 113.0214 247.1036 14.21486793 44846
MICROCARB               
1 64899U 25156A   26156.80026345  .00000589  00000+0  10087-3 0  9993
2 64899  97.9831 234.1406 0015229 311.8780  48.1127 14.72313824 46291
CO3D 3                  
1 64900U 25156B   26157.12940377  .00005686  00000+0  26562-3 0  9990
2 64900  97.4323 235.9814 0000988 138.0121 222.1190 15.20199213 47856
CO3D 4                  
1 64901U 25156C   26157.12956067  .00005521  00000+0  25783-3 0  9996
2 64901  97.4326 235.9815 0000882  35.7716 324.3578 15.20220271 47851
CO3D 2                  
1 64902U 25156D   26156.96456054  .00006313  00000+0  29449-3 0  9992
2 64902  97.4322 235.7181 0001396 120.1286 240.0087 15.20202442 47820
CO3D 1                  
1 64903U 25156E   26156.83306892  .00005911  00000+0  27588-3 0  9998
2 64903  97.4325 235.5886 0001153 120.3373 239.7976 15.20213945 47804
PRSC-S1                 
1 65055U 25164A   26157.25827735  .00006309  00000+0  43252-3 0  9995
2 65055  41.1315 349.3592 0007640 279.8667  80.1284 15.06356030 46782
SENTINEL-6B             
1 66514U 25264A   26156.37444091 -.00000058  00000+0  14251-4 0  9993
2 66514  66.0384 159.7138 0008059 269.2968  90.7124 12.80929621 25650
CAS500-3                
1 66655U 25274F   26157.05475813  .00001467  00000+0  16450-3 0  9998
2 66655  97.7446  85.3592 0006137 139.6825 220.4848 14.88294505 28497
CSG-3                   
1 67304U 26001A   26157.26230780  .00000368  00000+0  52774-4 0  9993
2 67304  97.8887 341.0226 0001329  95.7750 264.3614 14.82161567 22848
PRSC-E03                
1 68835U 26092A   26157.25259520  .00002588  00000+0  17852-3 0  9998
2 68835  37.9994 154.1578 0005260 290.3044  69.7152 15.06616989  6309
CAS500-2                
1 69013U 26100AK  26157.03050202  .00008374  00000+0  38602-3 0  9994
2 69013  97.4079  55.0788 0011548  69.3868 290.8604 15.20455188  5114
