OBJECT_NAME,OBJECT_ID,EPOCH,MEAN_MOTION,ECCENTRICITY,INCLINATION,RA_OF_ASC_NODE,ARG_OF_PERICENTER,MEAN_ANOMALY,EPHEMERIS_TYPE,CLASSIFICATION_TYPE,NORAD_CAT_ID,ELEMENT_SET_NO,REV_AT_EPOCH,BSTAR,MEAN_MOTION_DOT,MEAN_MOTION_DDOT
IONOSFERA-M 2,2024-199B,2026-06-06T04:29:11.207328,14.22755497,.0001471,98.7185,30.3853,48.6810,311.4495,0,U,61736,999,12926,.43974657E-4,.55E-6,0
PRSC-EO1,2025-012A,2026-06-05T18:50:56.296320,15.17617532,.00043082,97.4223,229.4677,306.3423,53.7413,0,U,62725,999,7646,.23021059E-3,.4564E-4,0
BIOMASS,2025-090A,2026-06-05T08:59:00.691584,14.67539402,.00012762,98.0746,343.8629,90.9912,269.1439,0,U,63772,999,5895,.15114507E-3,.809E-5,0
GOSAT-GW (IBUKI GW),2025-141A,2026-06-06T06:44:47.882400,14.67552347,.00014136,98.0572,94.7756,83.5419,276.5947,0,U,64694,999,5024,.15163266E-3,.812E-5,0
IONOSFERA-M 3,2025-155A,2026-06-06T06:21:50.701824,14.21484597,.00003456,98.6026,119.4455,183.9444,176.1731,0,U,64876,999,4485,.5245593E-4,.72E-6,0
IONOSFERA-M 4,2025-155B,2026-06-06T05:30:40.916736,14.21486793,.00006782,98.6019,119.3284,113.0214,247.1036,0,U,64877,999,4484,.52884971E-4,.73E-6,0
MICROCARB,2025-156A,2026-06-05T19:12:22.762080,14.72313824,.00152294,97.9831,234.1406,311.8780,48.1127,0,U,64899,999,4629,.10087031E-3,.589E-5,0
CO3D 3,2025-156B,2026-06-06T03:06:20.485728,15.20199213,.00009886,97.4323,235.9814,138.0121,222.1190,0,U,64900,999,4785,.26561807E-3,.5686E-4,0
CO3D 4,2025-156C,2026-06-06T03:06:34.041888,15.20220271,.00008822,97.4326,235.9815,35.7716,324.3578,0,U,64901,999,4785,.25782897E-3,.5521E-4,0
CO3D 2,2025-156D,2026-06-05T23:08:58.030656,15.20202442,.00013967,97.4322,235.7181,120.1286,240.0087,0,U,64902,999,4782,.294489E-3,.6313E-4,0
CO3D 1,2025-156E,2026-06-05T19:59:37.154688,15.20213945,.0001153,97.4325,235.5886,120.3373,239.7976,0,U,64903,999,4780,.27588E-3,.5911E-4,0
PRSC-S1,2025-164A,2026-06-06T06:11:55.163040,15.06356030,.000764,41.1315,349.3592,279.8667,80.1284,0,U,65055,999,4678,.43251632E-3,.6309E-4,0
SENTINEL-6B,2025-264A,2026-06-05T08:59:11.694624,12.80929621,.00080591,66.0384,159.7138,269.2968,90.7124,0,U,66514,999,2565,.14250563E-4,-.58E-6,0
CAS500-3,2025-274F,2026-06-06T01:18:51.102432,14.88294505,.00061373,97.7446,85.3592,139.6825,220.4848,0,U,66655,999,2849,.16450236E-3,.1467E-4,0
CSG-3,2026-001A,2026-06-06T06:17:43.393920,14.82161567,.00013295,97.8887,341.0226,95.7750,264.3614,0,U,67304,999,2284,.52774387E-4,.368E-5,0
PRSC-E03,2026-092A,2026-06-06T06:03:44.225280,15.06616989,.00052607,37.9994,154.1578,290.3044,69.7152,0,U,68835,999,630,.1785215E-3,.2588E-4,0
CAS500-2,2026-100AK,2026-06-06T00:43:55.374528,15.20455188,.00115482,97.4079,55.0788,69.3868,290.8604,0,U,69013,999,511,.38601911E-3,.8374E-4,0
